[
  {
    "COMMENT": "GENERATED VIA SPACETRACK.ORG API",
    "ORIGINATOR": "18 SPCS",
    "NORAD_CAT_ID": "46984",
    "OBJECT_NAME": "S6 MICHAEL FREILICH",
    "OBJECT_TYPE": "PAYLOAD",
    "CLASSIFICATION_TYPE": "U",
    "INTLDES": "20086A",
    "EPOCH": "2023-06-02 12:48:03",
    "EPOCH_MICROSECONDS": "358080",
    "MEAN_MOTION": "12.80929124",
    "ECCENTRICITY": "0.0007971",
    "INCLINATION": "66.0415",
    "RA_OF_ASC_NODE": "281.8904",
    "ARG_OF_PERICENTER": "269.8902",
    "MEAN_ANOMALY": "90.12",
    "EPHEMERIS_TYPE": "0",
    "ELEMENT_SET_NO": "999",
    "REV_AT_EPOCH": "11807",
    "BSTAR": "-0.00002475",
    "MEAN_MOTION_DOT": "-0.00000067",
    "MEAN_MOTION_DDOT": "0",
    "FILE": "3923342",
    "TLE_LINE0": "0 S6 MICHAEL FREILICH",
    "TLE_LINE1": "1 46984U 20086A   23153.53337220 -.00000067  00000-0 -24750-4 0  9993",
    "TLE_LINE2": "2 46984  66.0415 281.8904 0007971 269.8902  90.1200 12.80929124118074",
    "OBJECT_ID": "2020-086A",
    "OBJECT_NUMBER": "46984",
    "SEMIMAJOR_AXIS": "7715.874",
    "PERIOD": "112.418",
    "APOGEE": "1343.889",
    "PERIGEE": "1331.588",
    "DECAYED": "0"
  },
  {
    "COMMENT": "GENERATED VIA SPACETRACK.ORG API",
    "ORIGINATOR": "18 SPCS",
    "NORAD_CAT_ID": "46984",
    "OBJECT_NAME": "S6 MICHAEL FREILICH",
    "OBJECT_TYPE": "PAYLOAD",
    "CLASSIFICATION_TYPE": "U",
    "INTLDES": "20086A",
    "EPOCH": "2023-06-02 18:25:20",
    "EPOCH_MICROSECONDS": "656416",
    "MEAN_MOTION": "12.80929127",
    "ECCENTRICITY": "0.000797",
    "INCLINATION": "66.0415",
    "RA_OF_ASC_NODE": "281.4039",
    "ARG_OF_PERICENTER": "269.8995",
    "MEAN_ANOMALY": "90.1107",
    "EPHEMERIS_TYPE": "0",
    "ELEMENT_SET_NO": "999",
    "REV_AT_EPOCH": "11810",
    "BSTAR": "-0.000013001",
    "MEAN_MOTION_DOT": "-0.00000064",
    "MEAN_MOTION_DDOT": "0",
    "FILE": "3923570",
    "TLE_LINE0": "0 S6 MICHAEL FREILICH",
    "TLE_LINE1": "1 46984U 20086A   23153.76760019 -.00000064  00000-0 -13001-4 0  9998",
    "TLE_LINE2": "2 46984  66.0415 281.4039 0007970 269.8995  90.1107 12.80929127118103",
    "OBJECT_ID": "2020-086A",
    "OBJECT_NUMBER": "46984",
    "SEMIMAJOR_AXIS": "7715.874",
    "PERIOD": "112.418",
    "APOGEE": "1343.888",
    "PERIGEE": "1331.589",
    "DECAYED": "0"
  },
  {
    "COMMENT": "GENERATED VIA SPACETRACK.ORG API",
    "ORIGINATOR": "18 SPCS",
    "NORAD_CAT_ID": "46984",
    "OBJECT_NAME": "S6 MICHAEL FREILICH",
    "OBJECT_TYPE": "PAYLOAD",
    "CLASSIFICATION_TYPE": "U",
    "INTLDES": "20086A",
    "EPOCH": "2023-06-03 13:09:38",
    "EPOCH_MICROSECONDS": "312640",
    "MEAN_MOTION": "12.80929106",
    "ECCENTRICITY": "0.0007969",
    "INCLINATION": "66.0415",
    "RA_OF_ASC_NODE": "279.7823",
    "ARG_OF_PERICENTER": "269.8851",
    "MEAN_ANOMALY": "90.1251",
    "EPHEMERIS_TYPE": "0",
    "ELEMENT_SET_NO": "999",
    "REV_AT_EPOCH": "11833",
    "BSTAR": "-0.000022187",
    "MEAN_MOTION_DOT": "-0.00000066",
    "MEAN_MOTION_DDOT": "0",
    "FILE": "3924005",
    "TLE_LINE0": "0 S6 MICHAEL FREILICH",
    "TLE_LINE1": "1 46984U 20086A   23154.54836010 -.00000066  00000-0 -22187-4 0  9997",
    "TLE_LINE2": "2 46984  66.0415 279.7823 0007969 269.8851  90.1251 12.80929106118335",
    "OBJECT_ID": "2020-086A",
    "OBJECT_NUMBER": "46984",
    "SEMIMAJOR_AXIS": "7715.874",
    "PERIOD": "112.418",
    "APOGEE": "1343.888",
    "PERIGEE": "1331.590",
    "DECAYED": "0"
  },
  {
    "COMMENT": "GENERATED VIA SPACETRACK.ORG API",
    "ORIGINATOR": "18 SPCS",
    "NORAD_CAT_ID": "46984",
    "OBJECT_NAME": "S6 MICHAEL FREILICH",
    "OBJECT_TYPE": "PAYLOAD",
    "CLASSIFICATION_TYPE": "U",
    "INTLDES": "20086A",
    "EPOCH": "2023-06-03 18:46:55",
    "EPOCH_MICROSECONDS": "607520",
    "MEAN_MOTION": "12.80929145",
    "ECCENTRICITY": "0.0007962",
    "INCLINATION": "66.0415",
    "RA_OF_ASC_NODE": "279.2957",
    "ARG_OF_PERICENTER": "269.9098",
    "MEAN_ANOMALY": "90.1005",
    "EPHEMERIS_TYPE": "0",
    "ELEMENT_SET_NO": "999",
    "REV_AT_EPOCH": "11823",
    "BSTAR": "0.0000047345",
    "MEAN_MOTION_DOT": "-0.0000006",
    "MEAN_MOTION_DDOT": "0",
    "FILE": "3924324",
    "TLE_LINE0": "0 S6 MICHAEL FREILICH",
    "TLE_LINE1": "1 46984U 20086A   23154.78258805 -.00000060  00000-0  47345-5 0  9990",
    "TLE_LINE2": "2 46984  66.0415 279.2957 0007962 269.9098  90.1005 12.80929145118234",
    "OBJECT_ID": "2020-086A",
    "OBJECT_NUMBER": "46984",
    "SEMIMAJOR_AXIS": "7715.874",
    "PERIOD": "112.418",
    "APOGEE": "1343.882",
    "PERIGEE": "1331.595",
    "DECAYED": "0"
  },
  {
    "COMMENT": "GENERATED VIA SPACETRACK.ORG API",
    "ORIGINATOR": "18 SPCS",
    "NORAD_CAT_ID": "46984",
    "OBJECT_NAME": "S6 MICHAEL FREILICH",
    "OBJECT_TYPE": "PAYLOAD",
    "CLASSIFICATION_TYPE": "U",
    "INTLDES": "20086A",
    "EPOCH": "2023-06-04 13:31:13",
    "EPOCH_MICROSECONDS": "262016",
    "MEAN_MOTION": "12.80929143",
    "ECCENTRICITY": "0.0007969",
    "INCLINATION": "66.0414",
    "RA_OF_ASC_NODE": "277.6741",
    "ARG_OF_PERICENTER": "269.8776",
    "MEAN_ANOMALY": "90.1326",
    "EPHEMERIS_TYPE": "0",
    "ELEMENT_SET_NO": "999",
    "REV_AT_EPOCH": "11833",
    "BSTAR": "0.00002419",
    "MEAN_MOTION_DOT": "-0.00000055",
    "MEAN_MOTION_DDOT": "0",
    "FILE": "3924842",
    "TLE_LINE0": "0 S6 MICHAEL FREILICH",
    "TLE_LINE1": "1 46984U 20086A   23155.56334794 -.00000055  00000-0  24190-4 0  9995",
    "TLE_LINE2": "2 46984  66.0414 277.6741 0007969 269.8776  90.1326 12.80929143118330",
    "OBJECT_ID": "2020-086A",
    "OBJECT_NUMBER": "46984",
    "SEMIMAJOR_AXIS": "7715.874",
    "PERIOD": "112.418",
    "APOGEE": "1343.887",
    "PERIGEE": "1331.590",
    "DECAYED": "0"
  },
  {
    "COMMENT": "GENERATED VIA SPACETRACK.ORG API",
    "ORIGINATOR": "18 SPCS",
    "NORAD_CAT_ID": "46984",
    "OBJECT_NAME": "S6 MICHAEL FREILICH",
    "OBJECT_TYPE": "PAYLOAD",
    "CLASSIFICATION_TYPE": "U",
    "INTLDES": "20086A",
    "EPOCH": "2023-06-04 17:16:04",
    "EPOCH_MICROSECONDS": "795680",
    "MEAN_MOTION": "12.80929132",
    "ECCENTRICITY": "0.0007969",
    "INCLINATION": "66.0414",
    "RA_OF_ASC_NODE": "277.3497",
    "ARG_OF_PERICENTER": "269.9084",
    "MEAN_ANOMALY": "90.1018",
    "EPHEMERIS_TYPE": "0",
    "ELEMENT_SET_NO": "999",
    "REV_AT_EPOCH": "11848",
    "BSTAR": "0.000020661",
    "MEAN_MOTION_DOT": "-0.00000056",
    "MEAN_MOTION_DDOT": "0",
    "FILE": "3925082",
    "TLE_LINE0": "0 S6 MICHAEL FREILICH",
    "TLE_LINE1": "1 46984U 20086A   23155.71949995 -.00000056  00000-0  20661-4 0  9997",
    "TLE_LINE2": "2 46984  66.0414 277.3497 0007969 269.9084  90.1018 12.80929132118480",
    "OBJECT_ID": "2020-086A",
    "OBJECT_NUMBER": "46984",
    "SEMIMAJOR_AXIS": "7715.874",
    "PERIOD": "112.418",
    "APOGEE": "1343.887",
    "PERIGEE": "1331.590",
    "DECAYED": "0"
  },
  {
    "COMMENT": "GENERATED VIA SPACETRACK.ORG API",
    "ORIGINATOR": "18 SPCS",
    "NORAD_CAT_ID": "46984",
    "OBJECT_NAME": "S6 MICHAEL FREILICH",
    "OBJECT_TYPE": "PAYLOAD",
    "CLASSIFICATION_TYPE": "U",
    "INTLDES": "20086A",
    "EPOCH": "2023-06-04 17:16:04",
    "EPOCH_MICROSECONDS": "795680",
    "MEAN_MOTION": "12.80929132",
    "ECCENTRICITY": "0.0007969",
    "INCLINATION": "66.0414",
    "RA_OF_ASC_NODE": "277.3497",
    "ARG_OF_PERICENTER": "269.9084",
    "MEAN_ANOMALY": "90.1018",
    "EPHEMERIS_TYPE": "0",
    "ELEMENT_SET_NO": "999",
    "REV_AT_EPOCH": "11835",
    "BSTAR": "0.000020661",
    "MEAN_MOTION_DOT": "-0.00000056",
    "MEAN_MOTION_DDOT": "0",
    "FILE": "3925173",
    "TLE_LINE0": "0 S6 MICHAEL FREILICH",
    "TLE_LINE1": "1 46984U 20086A   23155.71949995 -.00000056  00000-0  20661-4 0  9997",
    "TLE_LINE2": "2 46984  66.0414 277.3497 0007969 269.9084  90.1018 12.80929132118356",
    "OBJECT_ID": "2020-086A",
    "OBJECT_NUMBER": "46984",
    "SEMIMAJOR_AXIS": "7715.874",
    "PERIOD": "112.418",
    "APOGEE": "1343.887",
    "PERIGEE": "1331.590",
    "DECAYED": "0"
  },
  {
    "COMMENT": "GENERATED VIA SPACETRACK.ORG API",
    "ORIGINATOR": "18 SPCS",
    "NORAD_CAT_ID": "46984",
    "OBJECT_NAME": "S6 MICHAEL FREILICH",
    "OBJECT_TYPE": "PAYLOAD",
    "CLASSIFICATION_TYPE": "U",
    "INTLDES": "20086A",
    "EPOCH": "2023-06-05 13:52:48",
    "EPOCH_MICROSECONDS": "209664",
    "MEAN_MOTION": "12.80929127",
    "ECCENTRICITY": "0.0007977",
    "INCLINATION": "66.0403",
    "RA_OF_ASC_NODE": "275.5661",
    "ARG_OF_PERICENTER": "269.8167",
    "MEAN_ANOMALY": "90.1934",
    "EPHEMERIS_TYPE": "0",
    "ELEMENT_SET_NO": "999",
    "REV_AT_EPOCH": "11846",
    "BSTAR": "0.0000011553",
    "MEAN_MOTION_DOT": "-0.00000061",
    "MEAN_MOTION_DDOT": "0",
    "FILE": "3925691",
    "TLE_LINE0": "0 S6 MICHAEL FREILICH",
    "TLE_LINE1": "1 46984U 20086A   23156.57833576 -.00000061  00000-0  11553-5 0  9996",
    "TLE_LINE2": "2 46984  66.0403 275.5661 0007977 269.8167  90.1934 12.80929127118460",
    "OBJECT_ID": "2020-086A",
    "OBJECT_NUMBER": "46984",
    "SEMIMAJOR_AXIS": "7715.874",
    "PERIOD": "112.418",
    "APOGEE": "1343.894",
    "PERIGEE": "1331.584",
    "DECAYED": "0"
  }
]